#dP2022  3 27  0  0  0.00000000      96 d+D   IGb14 FIT AIUB
## 2203      0.00000000   900.00000000 59665 0.0000000000000
+   51   G01G02G03G04G05G06G07G08G09G10G11G12G13G14G15G16G17
+        G18G19G20G21G22G23G24G25G26G27G28G29G30G31G32R01R02
+        R03R04R05R07R08R09R12R13R14R15R17R18R19R20R21R22R24
+          0  0  0  0  0  0  0  0  0  0  0  0  0  0  0  0  0
+          0  0  0  0  0  0  0  0  0  0  0  0  0  0  0  0  0
++         4  4  4  4  4  4  4  4  4  4  4  4  4  4  4  4  4
++         4  4  4  4  4  4  6  4  4  4  4  4  4  4  4  5  4
++         4  4  4  4  4  4  5  6  4  4  7  6  6  7  6  7  6
++         0  0  0  0  0  0  0  0  0  0  0  0  0  0  0  0  0
++         0  0  0  0  0  0  0  0  0  0  0  0  0  0  0  0  0
%c M  cc GPS ccc cccc cccc cccc cccc ccccc ccccc ccccc ccccc
%c cc cc ccc ccc cccc cccc cccc cccc ccccc ccccc ccccc ccccc
%f  1.2500000  1.025000000  0.00000000000  0.000000000000000
%f  0.0000000  0.000000000  0.00000000000  0.000000000000000
%i    0    0    0    0      0      0      0      0         0
%i    0    0    0    0      0      0      0      0         0
/* Center for Orbit Determination in Europe (CODE)                              
/* Final GNSS orbits and clocks for year-day 2022-0860                          
/* Middle day of a 3-day long-arc GPS/GLONASS solution                          
/* Product reference - DOI 10.7892/boris.75876.4                                
/* PCV:IGS14      OL/AL:FES2014b NONE     YN ORB:CoN CLK:CoN                    
*  2022  3 27  5 30  0.00000000
PG01 -13618.600298  22467.468380  -2504.731765    399.240492
PG02  18303.975947  -9750.596020 -16015.561559   -652.674637
PG03 -11196.666227  13064.247030 -20305.508484   -181.263549
PG04  -4135.541684  19940.124086 -16997.268721   -180.687515
PG05  24202.958486  -5791.799390   9331.852040    -76.121169
PG06  12693.034090   7306.808598 -22092.677201    245.245319
PG07   -782.884266  21272.936855  15953.650706    317.945801
PG08 -11057.837515  11008.008091  21416.785111    -61.469093
PG09   5678.945470  24505.349834  -8539.622877   -347.467441
PG10 -18678.570267 -11674.464785  15195.903384   -359.484447
PG11  19725.884548  -7230.712671 -16248.135663    -52.679032
PG12  15276.886868 -10951.478342 -18980.384977   -191.061765
PG13  15069.117850  -1792.453352  21658.877120    283.710653
PG14  17341.451636  12967.575647  15426.206272    -97.600470
PG15   9766.136793 -13036.061009  20526.377113    -73.661239
PG16 -26124.536441   -285.272848   5723.741141   -485.217237
PG17  13680.744969  21615.554139  -6615.704066    592.539022
PG18   1959.906742 -21314.758292  15651.840882    210.322488
PG19  15889.367016  16414.618744 -13970.774509    136.365661
PG20  26349.532006  -2019.921695   -268.202809    516.120652
PG21 -17533.492155  17356.150956   9552.291068    159.847810
PG22 -16650.908958 -13823.257150 -15113.118501    233.806761
PG23  -7467.632761 -14696.215708  20837.252736    -10.170585
PG24  14415.751117 -21885.606266   2305.553439    263.958131
PG25    534.369058 -15429.709428 -21902.726090    303.833619
PG26 -25460.274081  -5139.350599  -6374.064530    193.986304
PG27 -16475.937905  -1748.071086  20643.779577    166.685987
PG28  22880.883871  10131.351299   9063.809118    374.866175
PG29  -2541.502235 -24488.276679  -9941.126396   -496.110635
PG30   6564.982345  16226.714028  19984.592756   -520.815267
PG31 -15065.638902  -5017.349666 -21471.641154   -170.738613
PG32 -16485.846673 -18741.949998  -9208.549918    -92.849851
PR01   5655.920581  15780.312327 -19225.391132      7.372399
PR02  19129.279239  16654.944868  -2338.176894    513.686711
PR03  19890.762426   6937.855979  14392.831010     53.781966
PR04   9429.029402  -6202.208000  22907.502661    133.758442
PR05  -6122.666021 -16124.913930  18818.427821     90.056603
PR07 -19690.520545  -6552.197335 -14822.385199     33.102606
PR08  -9392.076967   6358.360341 -22788.318580    -64.307371
PR09 -13136.728124  -5734.719574 -21068.503451     46.482448
PR12  -5241.407111  13123.664010  21260.544436     17.580851
PR13  11995.818086   6195.014866  21620.540707    -20.040249
PR14  23421.076370  -5050.162154   8778.091150     75.810798
PR15  20360.240523 -12721.003135  -8604.536674     97.232369
PR17  10786.898449  -1436.596284 -23060.719149    512.722952
PR18   9676.370550 -18144.385418 -15120.961096    111.576835
PR19   4731.240343 -25065.899535   -356.333025   -183.131503
PR20  -4907.732517 -17409.172567  18016.970265    -67.515105
PR21 -10867.974649   3060.402997  22874.083383   -288.559431
PR22  -9545.086713  18640.888078  14471.628358   -173.152328
PR24   5976.773311  16748.387514 -18274.343523     86.235902
*  2022  3 27  5 45  0.00000000
PG01 -13838.982677  22430.220780    421.372526    399.232447
PG02  17491.996154  -7868.345319 -17776.756989   -652.674632
PG03 -13421.118413  12875.891050 -19020.847693   -181.278107
PG04  -5159.153234  18165.768074 -18634.462551   -180.684899
PG05  25136.189994  -5561.071979   6688.035743    -76.122495
PG06  11327.278224   9438.711268 -22020.342859    245.257155
PG07  -1868.933981  22556.504286  13873.367205    317.947528
PG08 -12295.546789   8858.675192  21766.931123    -61.470133
PG09   4926.184990  23646.122610 -11075.655736   -347.465513
PG10 -16862.276959 -11739.011922  17137.786025   -359.495170
PG11  18717.098460  -5543.833994 -18010.566106    -52.671339
PG12  17283.040677 -10598.664546 -17356.930713   -191.067182
PG13  15884.793106    547.263023  21155.398286    283.716598
PG14  15461.774949  12997.935801  17279.821255    -97.603531
PG15  11238.903724 -11048.415700  20955.222076    -73.658454
PG16 -26614.378455   -544.791383   2934.082063   -485.220956
PG17  13758.094761  22288.563182  -3802.616659    592.543190
PG18   3024.647815 -22614.186095  13503.707072    210.314370
PG19  16274.083204  17786.607025 -11622.174589    136.370161
PG20  26194.578201  -1672.689658  -3091.244730    516.120830
PG21 -17215.545311  16200.897311  12065.484237    159.847761
PG22 -17123.873546 -15428.070008 -12950.228574    233.811843
PG23  -5045.038895 -14722.156654  21525.936423    -10.173319
PG24  14518.360931 -21309.115250   5089.011518    263.954320
PG25   2970.882341 -15325.684503 -21753.959311    303.838233
PG26 -24600.596645  -5426.866996  -8980.545292    193.988907
PG27 -17497.479230  -3839.951802  19535.587844    166.696044
PG28  21741.862657  10191.890446  11609.560571    374.865988
PG29  -1877.695752 -23389.035555 -12439.756142   -496.114503
PG30   5225.163564  18002.321183  18798.081725   -520.816917
PG31 -13720.890922  -7059.065816 -21757.180254   -170.739897
PG32 -16712.196126 -19658.960433  -6563.216504    -92.856749
PR01   3668.356335  14313.362446 -20789.980356      7.373121
PR02  18824.173878  16241.827154  -5511.197331    513.687877
PR03  21256.628784   7792.247900  11746.975326     53.782883
PR04  11682.626801  -4576.355667  22240.192634    133.760050
PR05  -4231.509380 -14607.991908  20501.499911     90.056918
PR07 -21111.198588  -7447.530411 -12228.439371     33.102800
PR08 -11654.808227   4731.588804 -22133.656338    -64.306699
PR09 -10706.565704  -6831.832743 -22096.779044     46.485261
PR12  -7525.037640  14213.806570  19826.101555     17.581199
PR13   9503.751036   7301.990601  22495.782429    -20.040875
PR14  22229.129475  -4632.578122  11641.280948     75.810795
PR15  21108.984948 -13192.081825  -5555.779976     97.232133
PR17  10452.885808   1404.685148 -23218.371245    512.725712
PR18   9276.850921 -16166.056771 -17431.752224    111.578022
PR19   4468.027197 -24858.228102  -3594.385399   -183.132244
PR20  -4757.177143 -19496.501086  15784.274287    -67.515792
PR21 -10505.017361    233.807410  23242.714558   -288.562192
PR22  -9139.699663  16732.958936  16872.785745   -173.154725
PR24   5818.652862  18872.053936 -16132.551294     86.237017
EOF
